[{"OBJECT_NAME":"DIRECTV 15","OBJECT_ID":"2015-026A","EPOCH":"2026-04-01T10:42:36.381024","MEAN_MOTION":1.00269385,"ECCENTRICITY":3.03e-5,"INCLINATION":0.0294,"RA_OF_ASC_NODE":98.9231,"ARG_OF_PERICENTER":85.22,"MEAN_ANOMALY":63.4271,"EPHEMERIS_TYPE":0,"CLASSIFICATION_TYPE":"U","NORAD_CAT_ID":40663,"ELEMENT_SET_NO":999,"REV_AT_EPOCH":3969,"BSTAR":0,"MEAN_MOTION_DOT":-1.12e-6,"MEAN_MOTION_DDOT":0},{"OBJECT_NAME":"SKY MEXICO-1","OBJECT_ID":"2015-026B","EPOCH":"2026-04-01T10:49:28.223040","MEAN_MOTION":1.00268588,"ECCENTRICITY":0.0002626,"INCLINATION":0.0207,"RA_OF_ASC_NODE":181.3628,"ARG_OF_PERICENTER":217.4908,"MEAN_ANOMALY":234.5235,"EPHEMERIS_TYPE":0,"CLASSIFICATION_TYPE":"U","NORAD_CAT_ID":40664,"ELEMENT_SET_NO":999,"REV_AT_EPOCH":3968,"BSTAR":0,"MEAN_MOTION_DOT":0,"MEAN_MOTION_DDOT":0},{"OBJECT_NAME":"METEOSAT-11 (MSG-4)","OBJECT_ID":"2015-034A","EPOCH":"2026-04-01T07:49:08.019264","MEAN_MOTION":1.00274921,"ECCENTRICITY":0.0001761,"INCLINATION":3.0084,"RA_OF_ASC_NODE":71.512,"ARG_OF_PERICENTER":284.9559,"MEAN_ANOMALY":319.761,"EPHEMERIS_TYPE":0,"CLASSIFICATION_TYPE":"U","NORAD_CAT_ID":40732,"ELEMENT_SET_NO":999,"REV_AT_EPOCH":644,"BSTAR":0,"MEAN_MOTION_DOT":5.5e-7,"MEAN_MOTION_DDOT":0},{"OBJECT_NAME":"STAR ONE C4","OBJECT_ID":"2015-034B","EPOCH":"2026-04-01T10:51:57.983616","MEAN_MOTION":1.00271205,"ECCENTRICITY":0.0002822,"INCLINATION":0.0047,"RA_OF_ASC_NODE":84.5337,"ARG_OF_PERICENTER":285.2036,"MEAN_ANOMALY":273.0572,"EPHEMERIS_TYPE":0,"CLASSIFICATION_TYPE":"U","NORAD_CAT_ID":40733,"ELEMENT_SET_NO":999,"REV_AT_EPOCH":3924,"BSTAR":0,"MEAN_MOTION_DOT":-2.74e-6,"MEAN_MOTION_DDOT":0},{"OBJECT_NAME":"WGS F7 (USA 263)","OBJECT_ID":"2015-036A","EPOCH":"2026-04-01T12:59:38.702688","MEAN_MOTION":1.00273013,"ECCENTRICITY":0.000138,"INCLINATION":0.0171,"RA_OF_ASC_NODE":224.3179,"ARG_OF_PERICENTER":259.6263,"MEAN_ANOMALY":75.8541,"EPHEMERIS_TYPE":0,"CLASSIFICATION_TYPE":"U","NORAD_CAT_ID":40746,"ELEMENT_SET_NO":999,"REV_AT_EPOCH":3910,"BSTAR":0,"MEAN_MOTION_DOT":9.0e-8,"MEAN_MOTION_DDOT":0},{"OBJECT_NAME":"INTELSAT 34 (IS-34)","OBJECT_ID":"2015-039A","EPOCH":"2026-04-01T10:56:05.087616","MEAN_MOTION":1.00270721,"ECCENTRICITY":2.34e-5,"INCLINATION":0.0236,"RA_OF_ASC_NODE":270.06,"ARG_OF_PERICENTER":332.8277,"MEAN_ANOMALY":55.454,"EPHEMERIS_TYPE":0,"CLASSIFICATION_TYPE":"U","NORAD_CAT_ID":40874,"ELEMENT_SET_NO":999,"REV_AT_EPOCH":3885,"BSTAR":0,"MEAN_MOTION_DOT":-2.95e-6,"MEAN_MOTION_DDOT":0},{"OBJECT_NAME":"EUTELSAT 8 WEST B","OBJECT_ID":"2015-039B","EPOCH":"2026-04-01T09:26:58.634016","MEAN_MOTION":1.00272169,"ECCENTRICITY":0.0003819,"INCLINATION":0.0684,"RA_OF_ASC_NODE":3.1523,"ARG_OF_PERICENTER":9.52,"MEAN_ANOMALY":310.8286,"EPHEMERIS_TYPE":0,"CLASSIFICATION_TYPE":"U","NORAD_CAT_ID":40875,"ELEMENT_SET_NO":999,"REV_AT_EPOCH":3888,"BSTAR":0,"MEAN_MOTION_DOT":-7.5e-7,"MEAN_MOTION_DDOT":0},{"OBJECT_NAME":"GSAT-6","OBJECT_ID":"2015-041A","EPOCH":"2026-04-01T11:35:31.306272","MEAN_MOTION":1.00270671,"ECCENTRICITY":0.0003015,"INCLINATION":1.7208,"RA_OF_ASC_NODE":83.5453,"ARG_OF_PERICENTER":296.2406,"MEAN_ANOMALY":66.4844,"EPHEMERIS_TYPE":0,"CLASSIFICATION_TYPE":"U","NORAD_CAT_ID":40880,"ELEMENT_SET_NO":999,"REV_AT_EPOCH":3883,"BSTAR":0,"MEAN_MOTION_DOT":-1.68e-6,"MEAN_MOTION_DDOT":0},{"OBJECT_NAME":"INMARSAT 5-F3","OBJECT_ID":"2015-042A","EPOCH":"2026-04-01T12:59:38.702688","MEAN_MOTION":1.00272339,"ECCENTRICITY":0.0001115,"INCLINATION":0.0212,"RA_OF_ASC_NODE":180.191,"ARG_OF_PERICENTER":229.2792,"MEAN_ANOMALY":154.9213,"EPHEMERIS_TYPE":0,"CLASSIFICATION_TYPE":"U","NORAD_CAT_ID":40882,"ELEMENT_SET_NO":999,"REV_AT_EPOCH":3880,"BSTAR":0,"MEAN_MOTION_DOT":0,"MEAN_MOTION_DDOT":0},{"OBJECT_NAME":"MUOS-4","OBJECT_ID":"2015-044A","EPOCH":"2026-04-01T11:33:24.009696","MEAN_MOTION":1.00271925,"ECCENTRICITY":0.0059579,"INCLINATION":4.1873,"RA_OF_ASC_NODE":41.7257,"ARG_OF_PERICENTER":359.8553,"MEAN_ANOMALY":36.536,"EPHEMERIS_TYPE":0,"CLASSIFICATION_TYPE":"U","NORAD_CAT_ID":40887,"ELEMENT_SET_NO":999,"REV_AT_EPOCH":3879,"BSTAR":0,"MEAN_MOTION_DOT":-9.9e-7,"MEAN_MOTION_DDOT":0},{"OBJECT_NAME":"TJS-1","OBJECT_ID":"2015-046A","EPOCH":"2026-04-01T10:13:24.182112","MEAN_MOTION":1.00273083,"ECCENTRICITY":0.0005082,"INCLINATION":0.1268,"RA_OF_ASC_NODE":82.9728,"ARG_OF_PERICENTER":314.3245,"MEAN_ANOMALY":100.8465,"EPHEMERIS_TYPE":0,"CLASSIFICATION_TYPE":"U","NORAD_CAT_ID":40892,"ELEMENT_SET_NO":999,"REV_AT_EPOCH":3880,"BSTAR":0,"MEAN_MOTION_DOT":-1.65e-6,"MEAN_MOTION_DDOT":0},{"OBJECT_NAME":"EXPRESS-AM8","OBJECT_ID":"2015-048A","EPOCH":"2026-04-01T00:14:03.035040","MEAN_MOTION":1.00272161,"ECCENTRICITY":5.0e-5,"INCLINATION":0.0144,"RA_OF_ASC_NODE":232.5717,"ARG_OF_PERICENTER":56.0268,"MEAN_ANOMALY":250.2842,"EPHEMERIS_TYPE":0,"CLASSIFICATION_TYPE":"U","NORAD_CAT_ID":40895,"ELEMENT_SET_NO":999,"REV_AT_EPOCH":3857,"BSTAR":0,"MEAN_MOTION_DOT":-1.23e-6,"MEAN_MOTION_DDOT":0},{"OBJECT_NAME":"BEIDOU-3S IGSO-2S","OBJECT_ID":"2015-053A","EPOCH":"2026-03-23T22:31:30.655200","MEAN_MOTION":1.00279333,"ECCENTRICITY":0.00624964,"INCLINATION":49.3558,"RA_OF_ASC_NODE":259.7919,"ARG_OF_PERICENTER":189.3068,"MEAN_ANOMALY":166.8287,"EPHEMERIS_TYPE":0,"CLASSIFICATION_TYPE":"U","NORAD_CAT_ID":40938,"ELEMENT_SET_NO":999,"REV_AT_EPOCH":3849,"BSTAR":0,"MEAN_MOTION_DOT":-1.21e-6,"MEAN_MOTION_DDOT":0},{"OBJECT_NAME":"SKY MUSTER 1 (NBN1A)","OBJECT_ID":"2015-054A","EPOCH":"2026-04-01T10:14:58.135200","MEAN_MOTION":1.00271239,"ECCENTRICITY":0.0001865,"INCLINATION":0.0187,"RA_OF_ASC_NODE":227.5426,"ARG_OF_PERICENTER":142.5021,"MEAN_ANOMALY":113.723,"EPHEMERIS_TYPE":0,"CLASSIFICATION_TYPE":"U","NORAD_CAT_ID":40940,"ELEMENT_SET_NO":999,"REV_AT_EPOCH":3849,"BSTAR":0,"MEAN_MOTION_DOT":-2.88e-6,"MEAN_MOTION_DDOT":0},{"OBJECT_NAME":"ARSAT 2","OBJECT_ID":"2015-054B","EPOCH":"2026-04-01T10:48:50.781600","MEAN_MOTION":1.00271655,"ECCENTRICITY":0.0002019,"INCLINATION":0.0276,"RA_OF_ASC_NODE":279.9865,"ARG_OF_PERICENTER":81.5692,"MEAN_ANOMALY":269.454,"EPHEMERIS_TYPE":0,"CLASSIFICATION_TYPE":"U","NORAD_CAT_ID":40941,"ELEMENT_SET_NO":999,"REV_AT_EPOCH":3853,"BSTAR":0,"MEAN_MOTION_DOT":-2.34e-6,"MEAN_MOTION_DDOT":0},{"OBJECT_NAME":"MORELOS 3","OBJECT_ID":"2015-056A","EPOCH":"2026-04-01T10:38:53.246112","MEAN_MOTION":1.00272181,"ECCENTRICITY":0.0003423,"INCLINATION":3.1292,"RA_OF_ASC_NODE":12.9186,"ARG_OF_PERICENTER":355.3111,"MEAN_ANOMALY":228.1786,"EPHEMERIS_TYPE":0,"CLASSIFICATION_TYPE":"U","NORAD_CAT_ID":40946,"ELEMENT_SET_NO":999,"REV_AT_EPOCH":3851,"BSTAR":0,"MEAN_MOTION_DOT":-5.1e-7,"MEAN_MOTION_DDOT":0},{"OBJECT_NAME":"APSTAR-9","OBJECT_ID":"2015-059A","EPOCH":"2026-04-01T11:52:22.189728","MEAN_MOTION":1.00274515,"ECCENTRICITY":0.0001286,"INCLINATION":0.0446,"RA_OF_ASC_NODE":339.1322,"ARG_OF_PERICENTER":270.4563,"MEAN_ANOMALY":260.3384,"EPHEMERIS_TYPE":0,"CLASSIFICATION_TYPE":"U","NORAD_CAT_ID":40982,"ELEMENT_SET_NO":999,"REV_AT_EPOCH":3835,"BSTAR":0,"MEAN_MOTION_DOT":-2.75e-6,"MEAN_MOTION_DDOT":0}]
