DIRECTV 15              
1 40663U 15026A   26091.44625441 -.00000112  00000+0  00000+0 0  9994
2 40663   0.0294  98.9231 0000303  85.2200  63.4271  1.00269385 39695
SKY MEXICO-1            
1 40664U 15026B   26091.45102110  .00000000  00000+0  00000+0 0  9994
2 40664   0.0207 181.3628 0002626 217.4908 234.5235  1.00268588 39685
METEOSAT-11 (MSG-4)     
1 40732U 15034A   26091.32578726  .00000055  00000+0  00000+0 0  9995
2 40732   3.0084  71.5120 0001761 284.9559 319.7610  1.00274921  6443
STAR ONE C4             
1 40733U 15034B   26091.45275444 -.00000274  00000+0  00000+0 0  9995
2 40733   0.0047  84.5337 0002822 285.2036 273.0572  1.00271205 39242
WGS F7 (USA 263)        
1 40746U 15036A   26091.54142017  .00000009  00000+0  00000+0 0  9995
2 40746   0.0171 224.3179 0001380 259.6263  75.8541  1.00273013 39105
INTELSAT 34 (IS-34)     
1 40874U 15039A   26091.45561444 -.00000295  00000+0  00000+0 0  9997
2 40874   0.0236 270.0600 0000234 332.8277  55.4540  1.00270721 38859
EUTELSAT 8 WEST B       
1 40875U 15039B   26091.39373419 -.00000075  00000+0  00000+0 0  9990
2 40875   0.0684   3.1523 0003819   9.5200 310.8286  1.00272169 38888
GSAT-6                  
1 40880U 15041A   26091.48300123 -.00000168  00000+0  00000+0 0  9994
2 40880   1.7208  83.5453 0003015 296.2406  66.4844  1.00270671 38834
INMARSAT 5-F3           
1 40882U 15042A   26091.54142017  .00000000  00000+0  00000+0 0  9994
2 40882   0.0212 180.1910 0001115 229.2792 154.9213  1.00272339 38801
MUOS-4                  
1 40887U 15044A   26091.48152789 -.00000099  00000+0  00000+0 0  9990
2 40887   4.1873  41.7257 0059579 359.8553  36.5360  1.00271925 38798
TJS-1                   
1 40892U 15046A   26091.42597433 -.00000165  00000+0  00000+0 0  9995
2 40892   0.1268  82.9728 0005082 314.3245 100.8465  1.00273083 38802
EXPRESS-AM8             
1 40895U 15048A   26091.00975735 -.00000123  00000+0  00000+0 0  9993
2 40895   0.0144 232.5717 0000500  56.0268 250.2842  1.00272161 38572
BEIDOU-3S IGSO-2S       
1 40938U 15053A   26082.93854925 -.00000121  00000+0  00000+0 0  9994
2 40938  49.3558 259.7919 0062496 189.3068 166.8287  1.00279333 38494
SKY MUSTER 1 (NBN1A)    
1 40940U 15054A   26091.42706175 -.00000288  00000+0  00000+0 0  9999
2 40940   0.0187 227.5426 0001865 142.5021 113.7230  1.00271239 38494
ARSAT 2                 
1 40941U 15054B   26091.45058775 -.00000234  00000+0  00000+0 0  9990
2 40941   0.0276 279.9865 0002019  81.5692 269.4540  1.00271655 38530
MORELOS 3               
1 40946U 15056A   26091.44367183 -.00000051  00000+0  00000+0 0  9999
2 40946   3.1292  12.9186 0003423 355.3111 228.1786  1.00272181 38513
APSTAR-9                
1 40982U 15059A   26091.49470127 -.00000275  00000+0  00000+0 0  9998
2 40982   0.0446 339.1322 0001286 270.4563 260.3384  1.00274515 38356
